{"type": "FeatureCollection", "features": [ {"type": "Feature", "properties": {"norad_id": 38552, "name": "METEOSAT-10 (MSG-3)", "group": "weather", "lat": 1.5184963398118743, "lon": -139.61939605801373, "alt_km": 35784.308294416944, "timestamp": "2025-12-07T09:35:09.434942+00:00", "meta": {"OBJECT_NAME": "METEOSAT-10 (MSG-3)", "OBJECT_ID": "2012-035B", "EPOCH": "2025-12-06T22:13:37.485984", "MEAN_MOTION": 1.00273186, "ECCENTRICITY": 8.873e-05, "INCLINATION": 4.2148, "RA_OF_ASC_NODE": 61.7327, "ARG_OF_PERICENTER": 230.6924, "MEAN_ANOMALY": 117.0622, "EPHEMERIS_TYPE": 0, "CLASSIFICATION_TYPE": "U", "NORAD_CAT_ID": 38552, "ELEMENT_SET_NO": 999, "REV_AT_EPOCH": 4892, "BSTAR": 0, "MEAN_MOTION_DOT": -2e-08, "MEAN_MOTION_DDOT": 0}, "tle": {"line1": "1 38552U 12035B   25340.92612831 -.00000002  00000+0  00000+0 0  9991", "line2": "2 38552   4.2148  61.7327 0000887 230.6924 117.0622  1.00273186 48929"}}, "geometry": {"type": "Point", "coordinates": [-139.61939605801373, 1.5184963398118743]}}, {"type": "Feature", "properties": {"norad_id": 38771, "name": "METOP-B", "group": "weather", "lat": 42.86556896953283, "lon": -140.399744725006, "alt_km": 815.2096648073502, "timestamp": "2025-12-07T09:35:09.434954+00:00", "meta": {"OBJECT_NAME": "METOP-B", "OBJECT_ID": "2012-049A", "EPOCH": "2025-12-06T21:07:13.009152", "MEAN_MOTION": 14.21405061, "ECCENTRICITY": 0.00026607, "INCLINATION": 98.6807, "RA_OF_ASC_NODE": 30.9379, "ARG_OF_PERICENTER": 157.1156, "MEAN_ANOMALY": 203.014, "EPHEMERIS_TYPE": 0, "CLASSIFICATION_TYPE": "U", "NORAD_CAT_ID": 38771, "ELEMENT_SET_NO": 999, "REV_AT_EPOCH": 68594, "BSTAR": 0.00015146737, "MEAN_MOTION_DOT": 2.87e-06, "MEAN_MOTION_DDOT": 0}, "tle": {"line1": "1 38771U 12049A   25340.88001168  .00000287  00000+0  15147-3 0  9995", "line2": "2 38771  98.6807  30.9379 0002660 157.1156 203.0140 14.21405061685943"}}, "geometry": {"type": "Point", "coordinates": [-140.399744725006, 42.86556896953283]}}, {"type": "Feature", "properties": {"norad_id": 39216, "name": "INSAT-3D", "group": "weather", "lat": -1.4205059056246048, "lon": -10.232176300705898, "alt_km": 35788.11634115111, "timestamp": "2025-12-07T09:35:09.434966+00:00", "meta": {"OBJECT_NAME": "INSAT-3D", "OBJECT_ID": "2013-038B", "EPOCH": "2025-12-06T21:07:51.287808", "MEAN_MOTION": 1.00272229, "ECCENTRICITY": 0.00017572, "INCLINATION": 1.4291, "RA_OF_ASC_NODE": 85.0535, "ARG_OF_PERICENTER": 159.7991, "MEAN_ANOMALY": 277.5651, "EPHEMERIS_TYPE": 0, "CLASSIFICATION_TYPE": "U", "NORAD_CAT_ID": 39216, "ELEMENT_SET_NO": 999, "REV_AT_EPOCH": 4515, "BSTAR": 0, "MEAN_MOTION_DOT": -3.34e-06, "MEAN_MOTION_DDOT": 0}, "tle": {"line1": "1 39216U 13038B   25340.88045472 -.00000334  00000+0  00000+0 0  9997", "line2": "2 39216   1.4291  85.0535 0001757 159.7991 277.5651  1.00272229 45150"}}, "geometry": {"type": "Point", "coordinates": [-10.232176300705898, -1.4205059056246048]}}, {"type": "Feature", "properties": {"norad_id": 39260, "name": "FENGYUN 3C", "group": "weather", "lat": 46.20746202070743, "lon": 148.28737467919052, "alt_km": 833.9344685820561, "timestamp": "2025-12-07T09:35:09.434977+00:00", "meta": {"OBJECT_NAME": "FENGYUN 3C", "OBJECT_ID": "2013-052A", "EPOCH": "2025-12-06T22:46:51.574656", "MEAN_MOTION": 14.15693621, "ECCENTRICITY": 0.00139815, "INCLINATION": 98.4757, "RA_OF_ASC_NODE": 318.9115, "ARG_OF_PERICENTER": 213.3054, "MEAN_ANOMALY": 146.7242, "EPHEMERIS_TYPE": 0, "CLASSIFICATION_TYPE": "U", "NORAD_CAT_ID": 39260, "ELEMENT_SET_NO": 999, "REV_AT_EPOCH": 63136, "BSTAR": 0.00012634782, "MEAN_MOTION_DOT": 2.07e-06, "MEAN_MOTION_DDOT": 0}, "tle": {"line1": "1 39260U 13052A   25340.94920804  .00000207  00000+0  12635-3 0  9999", "line2": "2 39260  98.4757 318.9115 0013981 213.3054 146.7242 14.15693621631363"}}, "geometry": {"type": "Point", "coordinates": [148.28737467919052, 46.20746202070743]}}, {"type": "Feature", "properties": {"norad_id": 40069, "name": "METEOR-M 2", "group": "weather", "lat": 5.160789830252272, "lon": -41.58415275279646, "alt_km": 825.4810814701459, "timestamp": "2025-12-07T09:35:09.434988+00:00", "meta": {"OBJECT_NAME": "METEOR-M 2", "OBJECT_ID": "2014-037A", "EPOCH": "2025-12-06T21:44:06.949536", "MEAN_MOTION": 14.21382993, "ECCENTRICITY": 0.00048148, "INCLINATION": 98.4896, "RA_OF_ASC_NODE": 318.714, "ARG_OF_PERICENTER": 228.7202, "MEAN_ANOMALY": 131.3562, "EPHEMERIS_TYPE": 0, "CLASSIFICATION_TYPE": "U", "NORAD_CAT_ID": 40069, "ELEMENT_SET_NO": 999, "REV_AT_EPOCH": 59200, "BSTAR": 0.00014578631, "MEAN_MOTION_DOT": 2.76e-06, "MEAN_MOTION_DDOT": 0}, "tle": {"line1": "1 40069U 14037A   25340.90563599  .00000276  00000+0  14579-3 0  9997", "line2": "2 40069  98.4896 318.7140 0004814 228.7202 131.3562 14.21382993592008"}}, "geometry": {"type": "Point", "coordinates": [-41.58415275279646, 5.160789830252272]}}, {"type": "Feature", "properties": {"norad_id": 40267, "name": "HIMAWARI-8", "group": "weather", "lat": -0.02900375667607498, "lon": 0.8868909447669289, "alt_km": 35785.18429455172, "timestamp": "2025-12-07T09:35:09.435000+00:00", "meta": {"OBJECT_NAME": "HIMAWARI-8", "OBJECT_ID": "2014-060A", "EPOCH": "2025-12-06T21:10:58.488960", "MEAN_MOTION": 1.00269665, "ECCENTRICITY": 0.0001342, "INCLINATION": 0.0518, "RA_OF_ASC_NODE": 138.3213, "ARG_OF_PERICENTER": 148.6777, "MEAN_ANOMALY": 247.3303, "EPHEMERIS_TYPE": 0, "CLASSIFICATION_TYPE": "U", "NORAD_CAT_ID": 40267, "ELEMENT_SET_NO": 999, "REV_AT_EPOCH": 4083, "BSTAR": 0, "MEAN_MOTION_DOT": -2.7e-06, "MEAN_MOTION_DDOT": 0}, "tle": {"line1": "1 40267U 14060A   25340.88262140 -.00000270  00000+0  00000+0 0  9993", "line2": "2 40267   0.0518 138.3213 0001342 148.6777 247.3303  1.00269665 40838"}}, "geometry": {"type": "Point", "coordinates": [0.8868909447669289, -0.02900375667607498]}}, {"type": "Feature", "properties": {"norad_id": 40367, "name": "FENGYUN 2G", "group": "weather", "lat": -4.672018424716578, "lon": -40.19674322651506, "alt_km": 35779.55146704146, "timestamp": "2025-12-07T09:35:09.435013+00:00", "meta": {"OBJECT_NAME": "FENGYUN 2G", "OBJECT_ID": "2014-090A", "EPOCH": "2025-12-06T19:16:31.950048", "MEAN_MOTION": 1.00266143, "ECCENTRICITY": 0.00031469, "INCLINATION": 5.1526, "RA_OF_ASC_NODE": 75.1659, "ARG_OF_PERICENTER": 196.1642, "MEAN_ANOMALY": 193.3036, "EPHEMERIS_TYPE": 0, "CLASSIFICATION_TYPE": "U", "NORAD_CAT_ID": 40367, "ELEMENT_SET_NO": 999, "REV_AT_EPOCH": 4007, "BSTAR": 0, "MEAN_MOTION_DOT": -2.98e-06, "MEAN_MOTION_DDOT": 0}, "tle": {"line1": "1 40367U 14090A   25340.80314757 -.00000298  00000+0  00000+0 0  9991", "line2": "2 40367   5.1526  75.1659 0003146 196.1642 193.3036  1.00266143 40076"}}, "geometry": {"type": "Point", "coordinates": [-40.19674322651506, -4.672018424716578]}}, {"type": "Feature", "properties": {"norad_id": 40732, "name": "METEOSAT-11 (MSG-4)", "group": "weather", "lat": 1.0152362799278933, "lon": -130.3789748039949, "alt_km": 35784.39267981625, "timestamp": "2025-12-07T09:35:09.435029+00:00", "meta": {"OBJECT_NAME": "METEOSAT-11 (MSG-4)", "OBJECT_ID": "2015-034A", "EPOCH": "2025-12-06T18:50:49.412832", "MEAN_MOTION": 1.00265622, "ECCENTRICITY": 9.809e-05, "INCLINATION": 2.7205, "RA_OF_ASC_NODE": 72.0191, "ARG_OF_PERICENTER": 119.173, "MEAN_ANOMALY": 176.7276, "EPHEMERIS_TYPE": 0, "CLASSIFICATION_TYPE": "U", "NORAD_CAT_ID": 40732, "ELEMENT_SET_NO": 999, "REV_AT_EPOCH": 528, "BSTAR": 0, "MEAN_MOTION_DOT": 6.6e-07, "MEAN_MOTION_DDOT": 0}, "tle": {"line1": "1 40732U 15034A   25340.78529413  .00000066  00000+0  00000+0 0  9992", "line2": "2 40732   2.7205  72.0191 0000980 119.1730 176.7276  1.00265622  5288"}}, "geometry": {"type": "Point", "coordinates": [-130.3789748039949, 1.0152362799278933]}}, {"type": "Feature", "properties": {"norad_id": 41105, "name": "ELEKTRO-L 2", "group": "weather", "lat": 4.54209065735817, "lon": -154.1703846561606, "alt_km": 35779.10812982857, "timestamp": "2025-12-07T09:35:09.435041+00:00", "meta": {"OBJECT_NAME": "ELEKTRO-L 2", "OBJECT_ID": "2015-074A", "EPOCH": "2025-12-06T01:36:40.788864", "MEAN_MOTION": 1.00271999, "ECCENTRICITY": 0.00039355, "INCLINATION": 6.208, "RA_OF_ASC_NODE": 72.9071, "ARG_OF_PERICENTER": 200.4894, "MEAN_ANOMALY": 171.3714, "EPHEMERIS_TYPE": 0, "CLASSIFICATION_TYPE": "U", "NORAD_CAT_ID": 41105, "ELEMENT_SET_NO": 999, "REV_AT_EPOCH": 3657, "BSTAR": 0, "MEAN_MOTION_DOT": -1.12e-06, "MEAN_MOTION_DDOT": 0}, "tle": {"line1": "1 41105U 15074A   25340.06713876 -.00000112  00000+0  00000+0 0  9993", "line2": "2 41105   6.2080  72.9071 0003935 200.4894 171.3714  1.00271999 36575"}}, "geometry": {"type": "Point", "coordinates": [-154.1703846561606, 4.54209065735817]}}, {"type": "Feature", "properties": {"norad_id": 41752, "name": "INSAT-3DR", "group": "weather", "lat": -0.05201827278715032, "lon": -65.71271606615818, "alt_km": 35730.52797982843, "timestamp": "2025-12-07T09:35:09.435053+00:00", "meta": {"OBJECT_NAME": "INSAT-3DR", "OBJECT_ID": "2016-054A", "EPOCH": "2025-12-06T20:52:00.304608", "MEAN_MOTION": 1.00269869, "ECCENTRICITY": 0.00145712, "INCLINATION": 0.0775, "RA_OF_ASC_NODE": 87.4466, "ARG_OF_PERICENTER": 182.2729, "MEAN_ANOMALY": 193.1991, "EPHEMERIS_TYPE": 0, "CLASSIFICATION_TYPE": "U", "NORAD_CAT_ID": 41752, "ELEMENT_SET_NO": 999, "REV_AT_EPOCH": 3389, "BSTAR": 0, "MEAN_MOTION_DOT": -7.1e-07, "MEAN_MOTION_DDOT": 0}, "tle": {"line1": "1 41752U 16054A   25340.86944797 -.00000071  00000+0  00000+0 0  9990", "line2": "2 41752   0.0775  87.4466 0014571 182.2729 193.1991  1.00269869 33891"}}, "geometry": {"type": "Point", "coordinates": [-65.71271606615818, -0.05201827278715032]}}]}